NORAD_CAT_ID,OBJECT_NAME,OBJECT_TYPE,EPOCH,MEAN_MOTION,ECCENTRICITY,INCLINATION,RA_OF_ASC_NODE,ARG_OF_PERICENTER,MEAN_ANOMALY,BSTAR,MEAN_MOTION_DOT,MEAN_MOTION_DDOT,TLE_LINE0,TLE_LINE1,TLE_LINE2,SEMIMAJOR_AXIS,PERIOD,APOGEE,PERIGEE,DECAYED
55285.0,STARLINK-5332,PAYLOAD,2023-11-06 13:21:12,14.98343302,0.0002762,70.0005,357.9354,272.917,87.1673,0.0001266,1.418e-05,0.0,0 STARLINK-5332,1 55285U 23010S   23310.55639505  .00001418  00000-0  12660-3 0  9990,2 55285  70.0005 357.9354 0002762 272.9170  87.1673 14.98343302 46706,6950.152,96.106,573.936,570.097,0.0
55285.0,STARLINK-5332,PAYLOAD,2023-11-07 03:46:28,14.98304396,0.0003214,70.0003,356.4197,267.6178,92.4613,-0.0003292,-4.016e-05,0.0,0 STARLINK-5332,1 55285U 23010S   23311.15727518 -.00004016  00000-0 -32920-3 0  9999,2 55285  70.0003 356.4197 0003214 267.6178  92.4613 14.98304396 45606,6950.272,96.109,574.371,569.903,0.0
55285.0,STARLINK-5332,PAYLOAD,2023-11-07 13:23:17,14.98302334,0.0003138,69.9994,355.4092,270.3723,89.7076,-0.00034854,-4.246e-05,0.0,0 STARLINK-5332,1 55285U 23010S   23311.55784351 -.00004246  00000-0 -34854-3 0  9994,2 55285  69.9994 355.4092 0003138 270.3723  89.7076 14.98302334 46857,6950.278,96.109,574.324,569.962,0.0
55285.0,STARLINK-5332,PAYLOAD,2023-11-07 19:47:49,14.98322034,0.0002835,70.0007,354.7375,267.1284,92.9551,-0.00028565,-3.499e-05,0.0,0 STARLINK-5332,1 55285U 23010S   23311.82487308 -.00003499  00000-0 -28565-3 0  9997,2 55285  70.0007 354.7375 0002835 267.1284  92.9551 14.98322034 45706,6950.218,96.108,574.053,570.112,0.0
55285.0,STARLINK-5332,PAYLOAD,2023-11-08 11:49:08,14.98335344,0.0002753,70.0002,353.0547,270.2562,89.8282,3.7523e-06,-4.8e-07,0.0,0 STARLINK-5332,1 55285U 23010S   23312.49245885 -.00000048  00000-0  37523-5 0  9995,2 55285  70.0002 353.0547 0002753 270.2562  89.8282 14.98335344 45802,6950.176,96.107,573.955,570.128,0.0
55285.0,STARLINK-5332,PAYLOAD,2023-11-08 13:25:16,14.98335163,0.0002793,70.0005,352.8868,268.4551,91.6288,4.5434e-05,4.49e-06,0.0,0 STARLINK-5332,1 55285U 23010S   23312.55921844  .00000449  00000-0  45434-4 0  9991,2 55285  70.0005 352.8868 0002793 268.4551  91.6288 14.98335163 47009,6950.177,96.107,573.983,570.101,0.0
55285.0,STARLINK-5332,PAYLOAD,2023-11-08 19:49:48,14.98342655,0.0002841,70.0001,352.2128,271.0132,89.0701,3.7902e-05,3.59e-06,0.0,0 STARLINK-5332,1 55285U 23010S   23312.82625220  .00000359  00000-0  37902-4 0  9991,2 55285  70.0001 352.2128 0002841 271.0132  89.0701 14.98342655 47046,6950.154,96.106,573.993,570.044,0.0
55285.0,STARLINK-5332,PAYLOAD,2023-11-09 11:51:08,14.98328988,0.0002802,70.0,350.5293,266.2002,93.8836,0.00049893,5.865e-05,0.0,0 STARLINK-5332,1 55285U 23010S   23313.49385031  .00005865  00000-0  49893-3 0  9996,2 55285  70.0000 350.5293 0002802 266.2002  93.8836 14.98328988 45951,6950.196,96.107,574.008,570.114,0.0
55285.0,STARLINK-5332,PAYLOAD,2023-11-09 13:27:16,14.98326811,0.0002442,70.0011,350.362,255.337,104.7518,0.00046661,5.478e-05,0.0,0 STARLINK-5332,1 55285U 23010S   23313.56061267  .00005478  00000-0  46661-3 0  9996,2 55285  70.0011 350.3620 0002442 255.3370 104.7518 14.98326811 47158,6950.203,96.107,573.765,570.371,0.0
55285.0,STARLINK-5332,PAYLOAD,2023-11-09 19:51:49,14.98324278,0.0002467,70.0006,349.6868,269.4231,90.6645,0.00032695,3.81e-05,0.0,0 STARLINK-5332,1 55285U 23010S   23313.82765861  .00003810  00000-0  32695-3 0  9996,2 55285  70.0006 349.6868 0002467 269.4231  90.6645 14.98324278 46008,6950.211,96.107,573.79,570.361,0.0
55285.0,STARLINK-5332,PAYLOAD,2023-11-10 11:53:10,14.98331949,0.0002766,70.0006,348.0064,269.9072,90.177,-6.3238e-05,-8.47e-06,0.0,0 STARLINK-5332,1 55285U 23010S   23314.49526128 -.00000847  00000-0 -63238-4 0  9998,2 55285  70.0006 348.0064 0002766 269.9072  90.1770 14.98331949 47298,6950.187,96.107,573.974,570.129,0.0
55285.0,STARLINK-5332,PAYLOAD,2023-11-10 19:53:50,14.98336519,0.0002904,69.9995,347.162,268.4558,91.6268,-8.5413e-05,-1.112e-05,0.0,0 STARLINK-5332,1 55285U 23010S   23314.82905649 -.00001112  00000-0 -85413-4 0  9999,2 55285  69.9995 347.1620 0002904 268.4558  91.6268 14.98336519 46157,6950.173,96.107,574.056,570.019,0.0
55285.0,STARLINK-5332,PAYLOAD,2023-11-11 11:55:10,14.98342173,0.0002866,69.9994,345.4784,266.386,93.6971,-0.00010537,-1.35e-05,0.0,0 STARLINK-5332,1 55285U 23010S   23315.49664889 -.00001350  00000-0 -10537-3 0  9999,2 55285  69.9994 345.4784 0002866 266.3860  93.6971 14.98342173 47447,6950.155,96.106,574.012,570.028,0.0
55285.0,STARLINK-5332,PAYLOAD,2023-11-11 19:55:50,14.98340436,0.0002959,69.9992,344.6358,267.7947,92.2873,-0.00015356,-1.925e-05,0.0,0 STARLINK-5332,1 55285U 23010S   23315.83044877 -.00001925  00000-0 -15356-3 0  9998,2 55285  69.9992 344.6358 0002959 267.7947  92.2873 14.98340436 46307,6950.161,96.106,574.082,569.969,0.0
55285.0,STARLINK-5332,PAYLOAD,2023-11-12 03:56:31,14.98321078,0.000289,69.9991,343.7942,265.7494,94.3335,0.00014622,1.652e-05,0.0,0 STARLINK-5332,1 55285U 23010S   23316.16425254  .00001652  00000-0  14622-3 0  9997,2 55285  69.9991 343.7942 0002890 265.7494  94.3335 14.98321078 46356,6950.22,96.108,574.094,570.077,0.0
55285.0,STARLINK-5332,PAYLOAD,2023-11-12 11:57:11,14.98329778,0.000285,69.9993,342.9537,266.1112,93.9721,4.523e-05,4.47e-06,0.0,0 STARLINK-5332,1 55285U 23010S   23316.49804984  .00000447  00000-0  45230-4 0  9995,2 55285  69.9993 342.9537 0002850 266.1112  93.9721 14.98329778 47593,6950.194,96.107,574.039,570.078,0.0
55285.0,STARLINK-5332,PAYLOAD,2023-11-13 11:59:12,14.98306842,0.000268,69.9995,340.4286,269.4472,90.638,0.0005755,6.776e-05,0.0,0 STARLINK-5332,1 55285U 23010S   23317.49944912  .00006776  00000-0  57550-3 0  9990,2 55285  69.9995 340.4286 0002680 269.4472  90.6380 14.98306842 46552,6950.265,96.108,573.992,570.267,0.0
55285.0,STARLINK-5332,PAYLOAD,2023-11-13 18:23:44,14.9832185,0.0002856,69.9999,339.7544,284.1336,75.9505,0.00015914,1.806e-05,0.0,0 STARLINK-5332,1 55285U 23010S   23317.76649089  .00001806  00000-0  15914-3 0  9994,2 55285  69.9999 339.7544 0002856 284.1336  75.9505 14.98321850 47789,6950.218,96.108,574.068,570.098,0.0
55285.0,STARLINK-5332,PAYLOAD,2023-11-14 12:01:13,14.98326791,0.0002507,70.0001,337.9031,268.0702,92.017,-1.7261e-06,-1.14e-06,0.0,0 STARLINK-5332,1 55285U 23010S   23318.50084989 -.00000114  00000-0 -17261-5 0  9991,2 55285  70.0001 337.9031 0002507 268.0702  92.0170 14.98326791 46706,6950.203,96.107,573.81,570.325,0.0
55285.0,STARLINK-5332,PAYLOAD,2023-11-14 18:25:45,14.98341802,0.0002717,70.0003,337.2293,275.0975,84.9874,-0.00023588,-2.907e-05,0.0,0 STARLINK-5332,1 55285U 23010S   23318.76788536 -.00002907  00000-0 -23588-3 0  9997,2 55285  70.0003 337.2293 0002717 275.0975  84.9874 14.98341802 46749,6950.156,96.106,573.91,570.133,0.0
55285.0,STARLINK-5332,PAYLOAD,2023-11-15 04:02:34,14.98324835,0.0002252,69.9999,336.2209,260.7485,99.342,1.0432e-05,3.2e-07,0.0,0 STARLINK-5332,1 55285U 23010S   23319.16845001  .00000032  00000-0  10432-4 0  9993,2 55285  69.9999 336.2209 0002252 260.7485  99.3420 14.98324835 46808,6950.209,96.107,573.639,570.509,0.0
55285.0,STARLINK-5332,PAYLOAD,2023-11-15 10:27:06,14.98328452,0.0002396,70.0006,335.5478,251.7341,108.3557,-4.7576e-05,-6.6e-06,0.0,0 STARLINK-5332,1 55285U 23010S   23319.43548922 -.00000660  00000-0 -47576-4 0  9993,2 55285  70.0006 335.5478 0002396 251.7341 108.3557 14.98328452 48038,6950.198,96.107,573.728,570.397,0.0
55285.0,STARLINK-5332,PAYLOAD,2023-11-15 18:27:46,14.98327707,0.0002125,70.0014,334.7046,277.6027,82.4891,-2.1632e-05,-3.51e-06,0.0,0 STARLINK-5332,1 55285U 23010S   23319.76929149 -.00000351  00000-0 -21632-4 0  9995,2 55285  70.0014 334.7046 0002125 277.6027  82.4891 14.98327707 48087,6950.2,96.107,573.542,570.588,0.0
55285.0,STARLINK-5332,PAYLOAD,2023-11-16 10:29:08,14.9830111,0.0002425,70.0009,333.0227,256.2778,103.8111,0.00024285,2.804e-05,0.0,0 STARLINK-5332,1 55285U 23010S   23320.43690068  .00002804  00000-0  24285-3 0  9995,2 55285  70.0009 333.0227 0002425 256.2778 103.8111 14.98301110 46994,6950.282,96.109,573.833,570.462,0.0
55285.0,STARLINK-5332,PAYLOAD,2023-11-16 18:29:47,14.98326312,0.0002732,70.0009,332.1794,285.8518,74.234,-2.2134e-05,-3.57e-06,0.0,0 STARLINK-5332,1 55285U 23010S   23320.77069250 -.00000357  00000-0 -22134-4 0  9990,2 55285  70.0009 332.1794 0002732 285.8518  74.2340 14.98326312 47047,6950.204,96.107,573.968,570.17,0.0
55285.0,STARLINK-5332,PAYLOAD,2023-11-17 10:31:08,14.9832442,0.0002713,69.9995,330.4967,264.2556,95.8294,-6.5744e-06,-1.71e-06,0.0,0 STARLINK-5332,1 55285U 23010S   23321.43829336 -.00000171  00000-0 -65744-5 0  9992,2 55285  69.9995 330.4967 0002713 264.2556  95.8294 14.98324420 48331,6950.21,96.107,573.961,570.19,0.0
55285.0,STARLINK-5332,PAYLOAD,2023-11-17 18:31:48,14.98327042,0.0002706,70.0,329.6549,270.163,89.9219,6.2803e-06,-1.8e-07,0.0,0 STARLINK-5332,1 55285U 23010S   23321.77209246 -.00000018  00000-0  62803-5 0  9993,2 55285  70.0000 329.6549 0002706 270.1630  89.9219 14.98327042 47195,6950.202,96.107,573.948,570.186,0.0
55285.0,STARLINK-5332,PAYLOAD,2023-11-18 04:08:35,14.9834564,0.0002903,69.9998,328.6439,268.9768,91.1058,0.00024181,2.795e-05,0.0,0 STARLINK-5332,1 55285U 23010S   23322.17263175  .00002795  00000-0  24181-3 0  9997,2 55285  69.9998 328.6439 0002903 268.9768  91.1058 14.98345640 47258,6950.145,96.106,574.027,569.992,0.0
55285.0,STARLINK-5332,PAYLOAD,2023-11-18 10:33:06,14.9835303,0.000275,69.9994,327.9724,262.3954,97.6892,0.00028521,3.314e-05,0.0,0 STARLINK-5332,1 55285U 23010S   23322.43966221  .00003314  00000-0  28521-3 0  9998,2 55285  69.9994 327.9724 0002750 262.3954  97.6892 14.98353030 47291,6950.122,96.106,573.898,570.075,0.0
55285.0,STARLINK-5332,PAYLOAD,2023-11-19 04:10:37,14.9832402,0.0003088,69.9988,326.1198,274.9036,85.1771,-4.122e-05,-5.85e-06,0.0,0 STARLINK-5332,1 55285U 23010S   23323.17404494 -.00000585  00000-0 -41220-4 0  9990,2 55285  69.9988 326.1198 0003088 274.9036  85.1771 14.98324020 47403,6950.211,96.107,574.223,569.93,0.0
